[
    {
        "Altitude(m)": 554256.0698500264,
        "Argument of Periapsis(deg)": 0.0,
        "Eccentricity": 0.0,
        "Inclination(deg)": 53.0,
        "Latitude(deg)": -0.07932801475790312,
        "Longitude(deg)": 10.090177778744494,
        "Mean Anomaly(deg)": -179.99999999999994,
        "RAAN(deg)": 290.0,
        "Satellite Name": "Starlink Shell 1 1287",
        "Satellite Number": 1287,
        "Semi-Major Axis(m)": 6931778.249405717,
        "Time(s)": 0
    },
    {
        "Altitude(m)": 554323.2810172103,
        "Argument of Periapsis(deg)": 0.00034857847951123687,
        "Eccentricity": 0.0,
        "Inclination(deg)": 53.0,
        "Latitude(deg)": -0.5832550508253378,
        "Longitude(deg)": 10.425556008467503,
        "Mean Anomaly(deg)": -179.37316879644328,
        "RAAN(deg)": 289.99948122992254,
        "Satellite Name": "Starlink Shell 1 1287",
        "Satellite Number": 1287,
        "Semi-Major Axis(m)": 6931778.249405717,
        "Time(s)": 10
    },
    {
        "Altitude(m)": 554393.2781887429,
        "Argument of Periapsis(deg)": 0.0006971569590224737,
        "Eccentricity": 0.0,
        "Inclination(deg)": 53.0,
        "Latitude(deg)": -1.087146026163786,
        "Longitude(deg)": 10.76099388811923,
        "Mean Anomaly(deg)": -178.74633759288656,
        "RAAN(deg)": 289.9989624598451,
        "Satellite Name": "Starlink Shell 1 1287",
        "Satellite Number": 1287,
        "Semi-Major Axis(m)": 6931778.249405717,
        "Time(s)": 20
    },
    {
        "Altitude(m)": 554466.0511289574,
        "Argument of Periapsis(deg)": 0.0010457354385337105,
        "Eccentricity": 0.0,
        "Inclination(deg)": 53.0,
        "Latitude(deg)": -1.5909780385575696,
        "Longitude(deg)": 11.09654896624131,
        "Mean Anomaly(deg)": -178.11950638932984,
        "RAAN(deg)": 289.9984436897676,
        "Satellite Name": "Starlink Shell 1 1287",
        "Satellite Number": 1287,
        "Semi-Major Axis(m)": 6931778.249405717,
        "Time(s)": 30
    },
    {
        "Altitude(m)": 554541.5882514457,
        "Argument of Periapsis(deg)": 0.0013943139180449475,
        "Eccentricity": 0.0,
        "Inclination(deg)": 53.0,
        "Latitude(deg)": -2.0947281643730222,
        "Longitude(deg)": 11.432279344407545,
        "Mean Anomaly(deg)": -177.4926751857731,
        "RAAN(deg)": 289.9979249196901,
        "Satellite Name": "Starlink Shell 1 1287",
        "Satellite Number": 1287,
        "Semi-Major Axis(m)": 6931778.249405717,
        "Time(s)": 40
    },
    {
        "Altitude(m)": 554619.8766220997,
        "Argument of Periapsis(deg)": 0.0017428923975561844,
        "Eccentricity": 0.0,
        "Inclination(deg)": 53.0,
        "Latitude(deg)": -2.5983734468497373,
        "Longitude(deg)": 11.76824269387777,
        "Mean Anomaly(deg)": -176.8658439822165,
        "RAAN(deg)": 289.9974061496127,
        "Satellite Name": "Starlink Shell 1 1287",
        "Satellite Number": 1287,
        "Semi-Major Axis(m)": 6931778.249405717,
        "Time(s)": 50
    },
    {
        "Altitude(m)": 554700.9019628001,
        "Argument of Periapsis(deg)": 0.002091470877067421,
        "Eccentricity": 0.0,
        "Inclination(deg)": 53.0,
        "Latitude(deg)": -3.1018908843570103,
        "Longitude(deg)": 12.104496785144416,
        "Mean Anomaly(deg)": -176.23901277865968,
        "RAAN(deg)": 289.9968873795352,
        "Satellite Name": "Starlink Shell 1 1287",
        "Satellite Number": 1287,
        "Semi-Major Axis(m)": 6931778.249405717,
        "Time(s)": 60
    },
    {
        "Altitude(m)": 554784.6486557997,
        "Argument of Periapsis(deg)": 0.0024400493565786582,
        "Eccentricity": 0.0,
        "Inclination(deg)": 53.0,
        "Latitude(deg)": -3.6052574186042192,
        "Longitude(deg)": 12.441100017504416,
        "Mean Anomaly(deg)": -175.61218157510302,
        "RAAN(deg)": 289.9963686094577,
        "Satellite Name": "Starlink Shell 1 1287",
        "Satellite Number": 1287,
        "Semi-Major Axis(m)": 6931778.249405717,
        "Time(s)": 70
    },
    {
        "Altitude(m)": 554871.0997487635,
        "Argument of Periapsis(deg)": 0.002788627836089895,
        "Eccentricity": 0.0,
        "Inclination(deg)": 53.0,
        "Latitude(deg)": -4.10844992280007,
        "Longitude(deg)": 12.778110435792234,
        "Mean Anomaly(deg)": -174.98535037154628,
        "RAAN(deg)": 289.99584983938024,
        "Satellite Name": "Starlink Shell 1 1287",
        "Satellite Number": 1287,
        "Semi-Major Axis(m)": 6931778.249405717,
        "Time(s)": 80
    },
    {
        "Altitude(m)": 554960.2369604828,
        "Argument of Periapsis(deg)": 0.0031372063156011316,
        "Eccentricity": 0.0,
        "Inclination(deg)": 53.0,
        "Latitude(deg)": -4.611445189740382,
        "Longitude(deg)": 13.115586260024484,
        "Mean Anomaly(deg)": -174.3585191679896,
        "RAAN(deg)": 289.9953310693028,
        "Satellite Name": "Starlink Shell 1 1287",
        "Satellite Number": 1287,
        "Semi-Major Axis(m)": 6931778.249405717,
        "Time(s)": 90
    },
    {
        "Altitude(m)": 555052.0406872634,
        "Argument of Periapsis(deg)": 0.0034857847951123688,
        "Eccentricity": 0.0,
        "Inclination(deg)": 53.0,
        "Latitude(deg)": -5.114219919818765,
        "Longitude(deg)": 13.453586415093595,
        "Mean Anomaly(deg)": -173.73168796443284,
        "RAAN(deg)": 289.9948122992253,
        "Satellite Name": "Starlink Shell 1 1287",
        "Satellite Number": 1287,
        "Semi-Major Axis(m)": 6931778.249405717,
        "Time(s)": 100
    },
    {
        "Altitude(m)": 555146.4900099487,
        "Argument of Periapsis(deg)": 0.003834363274623606,
        "Eccentricity": 0.0,
        "Inclination(deg)": 53.0,
        "Latitude(deg)": -5.616750708949284,
        "Longitude(deg)": 13.792169547639359,
        "Mean Anomaly(deg)": -173.10485676087612,
        "RAAN(deg)": 289.99429352914785,
        "Satellite Name": "Starlink Shell 1 1287",
        "Satellite Number": 1287,
        "Semi-Major Axis(m)": 6931778.249405717,
        "Time(s)": 110
    },
    {
        "Altitude(m)": 555243.5627016391,
        "Argument of Periapsis(deg)": 0.004182941754134842,
        "Eccentricity": 0.0,
        "Inclination(deg)": 53.0,
        "Latitude(deg)": -6.119014036385933,
        "Longitude(deg)": 14.131394555853728,
        "Mean Anomaly(deg)": -172.47802555731946,
        "RAAN(deg)": 289.99377475907033,
        "Satellite Name": "Starlink Shell 1 1287",
        "Satellite Number": 1287,
        "Semi-Major Axis(m)": 6931778.249405717,
        "Time(s)": 120
    },
    {
        "Altitude(m)": 555343.2352360274,
        "Argument of Periapsis(deg)": 0.004531520233646079,
        "Eccentricity": 0.0,
        "Inclination(deg)": 53.0,
        "Latitude(deg)": -6.620986252429053,
        "Longitude(deg)": 14.471321119349836,
        "Mean Anomaly(deg)": -171.85119435376276,
        "RAAN(deg)": 289.99325598899287,
        "Satellite Name": "Starlink Shell 1 1287",
        "Satellite Number": 1287,
        "Semi-Major Axis(m)": 6931778.249405717,
        "Time(s)": 130
    },
    {
        "Altitude(m)": 555445.4827964088,
        "Argument of Periapsis(deg)": 0.0048800987131573164,
        "Eccentricity": 0.0,
        "Inclination(deg)": 53.0,
        "Latitude(deg)": -7.122643566010341,
        "Longitude(deg)": 14.81200871622689,
        "Mean Anomaly(deg)": -171.22436315020593,
        "RAAN(deg)": 289.9927372189154,
        "Satellite Name": "Starlink Shell 1 1287",
        "Satellite Number": 1287,
        "Semi-Major Axis(m)": 6931778.249405717,
        "Time(s)": 140
    },
    {
        "Altitude(m)": 555550.2792853295,
        "Argument of Periapsis(deg)": 0.005228677192668553,
        "Eccentricity": 0.0,
        "Inclination(deg)": 53.0,
        "Latitude(deg)": -7.623962032138978,
        "Longitude(deg)": 15.153517153081655,
        "Mean Anomaly(deg)": -170.59753194664927,
        "RAAN(deg)": 289.99221844883795,
        "Satellite Name": "Starlink Shell 1 1287",
        "Satellite Number": 1287,
        "Semi-Major Axis(m)": 6931778.249405717,
        "Time(s)": 150
    },
    {
        "Altitude(m)": 555657.5973348556,
        "Argument of Periapsis(deg)": 0.00557725567217979,
        "Eccentricity": 0.0,
        "Inclination(deg)": 53.0,
        "Latitude(deg)": -8.124917539201139,
        "Longitude(deg)": 15.495907095098163,
        "Mean Anomaly(deg)": -169.97070074309258,
        "RAAN(deg)": 289.9916996787604,
        "Satellite Name": "Starlink Shell 1 1287",
        "Satellite Number": 1287,
        "Semi-Major Axis(m)": 6931778.249405717,
        "Time(s)": 160
    },
    {
        "Altitude(m)": 555767.4083175211,
        "Argument of Periapsis(deg)": 0.0059258341516910265,
        "Eccentricity": 0.0,
        "Inclination(deg)": 53.0,
        "Latitude(deg)": -8.625485796102256,
        "Longitude(deg)": 15.839239083343273,
        "Mean Anomaly(deg)": -169.34386953953586,
        "RAAN(deg)": 289.991180908683,
        "Satellite Name": "Starlink Shell 1 1287",
        "Satellite Number": 1287,
        "Semi-Major Axis(m)": 6931778.249405717,
        "Time(s)": 170
    },
    {
        "Altitude(m)": 555879.6823578522,
        "Argument of Periapsis(deg)": 0.006274412631202263,
        "Eccentricity": 0.0,
        "Inclination(deg)": 53.0,
        "Latitude(deg)": -9.12564231923587,
        "Longitude(deg)": 16.18357406501835,
        "Mean Anomaly(deg)": -168.71703833597908,
        "RAAN(deg)": 289.9906621386055,
        "Satellite Name": "Starlink Shell 1 1287",
        "Satellite Number": 1287,
        "Semi-Major Axis(m)": 6931778.249405717,
        "Time(s)": 180
    }
]